,country,pincode,locality,state,district,city,latitude,longitude,Clusters,1st Most Frequent Venue,2nd Most Frequent Venue,3rd Most Frequent Venue,4th Most Frequent Venue,5th Most Frequent Venue,6th Most Frequent Venue,7th Most Frequent Venue,8th Most Frequent Venue,9th Most Frequent Venue,10th Most Frequent Venue
50019,IN,560001,Bangalore G.P.O.,Karnataka,Bangalore,Bangalore North,12.9914,77.5944,4,Indian Restaurant,Coffee Shop,Chinese Restaurant,Italian Restaurant,Tea Room,Steakhouse,Hotel,Juice Bar,Fast Food Restaurant,Concert Hall
50020,IN,560001,Legislators Home,Karnataka,Bangalore,Bangalore North,12.9914,77.5944,4,Indian Restaurant,Coffee Shop,Chinese Restaurant,Italian Restaurant,Tea Room,Steakhouse,Hotel,Juice Bar,Fast Food Restaurant,Concert Hall
50021,IN,560001,Vasanthanagar,Karnataka,Bangalore,0,12.9914,77.5944,4,Indian Restaurant,Coffee Shop,Chinese Restaurant,Italian Restaurant,Tea Room,Steakhouse,Hotel,Juice Bar,Fast Food Restaurant,Concert Hall
50022,IN,560001,Mahatma Gandhi Road,Karnataka,Bangalore,Bangalore North,12.9914,77.5944,4,Indian Restaurant,Coffee Shop,Chinese Restaurant,Italian Restaurant,Tea Room,Steakhouse,Hotel,Juice Bar,Fast Food Restaurant,Concert Hall
50023,IN,560001,Vidhana Soudha,Karnataka,Bangalore,Bangalore North,12.9914,77.5944,4,Indian Restaurant,Coffee Shop,Chinese Restaurant,Italian Restaurant,Tea Room,Steakhouse,Hotel,Juice Bar,Fast Food Restaurant,Concert Hall
50024,IN,560001,Rajbhavan (Bangalore),Karnataka,Bangalore,Bangalore North,12.9914,77.5944,4,Indian Restaurant,Coffee Shop,Chinese Restaurant,Italian Restaurant,Tea Room,Steakhouse,Hotel,Juice Bar,Fast Food Restaurant,Concert Hall
50025,IN,560001,HighCourt,Karnataka,Bangalore,Bangalore North,12.9914,77.5944,4,Indian Restaurant,Coffee Shop,Chinese Restaurant,Italian Restaurant,Tea Room,Steakhouse,Hotel,Juice Bar,Fast Food Restaurant,Concert Hall
50026,IN,560001,Cubban Road,Karnataka,Bangalore,Bangalore North,12.9914,77.5944,4,Indian Restaurant,Coffee Shop,Chinese Restaurant,Italian Restaurant,Tea Room,Steakhouse,Hotel,Juice Bar,Fast Food Restaurant,Concert Hall
50027,IN,560001,Bangalore Bazaar,Karnataka,Bangalore,Bangalore North,12.9914,77.5944,4,Indian Restaurant,Coffee Shop,Chinese Restaurant,Italian Restaurant,Tea Room,Steakhouse,Hotel,Juice Bar,Fast Food Restaurant,Concert Hall
50028,IN,560001,CMM Court Complex,Karnataka,Bangalore,Bangalore,12.9914,77.5944,4,Indian Restaurant,Coffee Shop,Chinese Restaurant,Italian Restaurant,Tea Room,Steakhouse,Hotel,Juice Bar,Fast Food Restaurant,Concert Hall
50029,IN,560001,Dr. Ambedkar Veedhi,Karnataka,Bangalore,Bangalore North,12.9914,77.5944,4,Indian Restaurant,Coffee Shop,Chinese Restaurant,Italian Restaurant,Tea Room,Steakhouse,Hotel,Juice Bar,Fast Food Restaurant,Concert Hall
50030,IN,560002,Bangalore City,Karnataka,Bangalore,Bangalore North,12.9719,77.5937,4,Italian Restaurant,Café,Lounge,Hotel,Coffee Shop,Electronics Store,Restaurant,Mexican Restaurant,Cupcake Shop,Japanese Restaurant
50031,IN,560002,Bangalore Corporation Building,Karnataka,Bangalore,Bangalore South,12.9719,77.5937,4,Italian Restaurant,Café,Lounge,Hotel,Coffee Shop,Electronics Store,Restaurant,Mexican Restaurant,Cupcake Shop,Japanese Restaurant
50032,IN,560002,Sri Jayachamarajendra Road,Karnataka,Bangalore,Bangalore South,12.9719,77.5937,4,Italian Restaurant,Café,Lounge,Hotel,Coffee Shop,Electronics Store,Restaurant,Mexican Restaurant,Cupcake Shop,Japanese Restaurant
50033,IN,560003,Palace Guttahalli,Karnataka,Bangalore,Bangalore North,13.0097,77.5648,4,Ice Cream Shop,Café,Indian Restaurant,Department Store,South Indian Restaurant,Bakery,Zoo,Fast Food Restaurant,Farmers Market,Event Service
50034,IN,560003,Malleswaram,Karnataka,Bangalore,Bangalore North,13.0097,77.5648,4,Ice Cream Shop,Café,Indian Restaurant,Department Store,South Indian Restaurant,Bakery,Zoo,Fast Food Restaurant,Farmers Market,Event Service
50035,IN,560003,Swimming Pool Extn,Karnataka,Bangalore,Bangalore North,13.0097,77.5648,4,Ice Cream Shop,Café,Indian Restaurant,Department Store,South Indian Restaurant,Bakery,Zoo,Fast Food Restaurant,Farmers Market,Event Service
50036,IN,560003,Vyalikaval Extn,Karnataka,Bangalore,Bangalore North,13.0097,77.5648,4,Ice Cream Shop,Café,Indian Restaurant,Department Store,South Indian Restaurant,Bakery,Zoo,Fast Food Restaurant,Farmers Market,Event Service
50037,IN,560004,Pampamahakavi Road,Karnataka,Bangalore,Bangalore South,13.5207,76.0303,0,0,0,0,0,0,0,0,0,0,0
50038,IN,560004,Thyagarajnagar,Karnataka,Bangalore,Bangalore,13.5207,76.0303,0,0,0,0,0,0,0,0,0,0,0
50039,IN,560004,Mavalli,Karnataka,Bangalore,Bangalore South,14.0998,74.4891,0,0,0,0,0,0,0,0,0,0,0
50040,IN,560004,Basavanagudi,Karnataka,Bangalore,Bangalore South,12.9417,77.5714,0,Indian Restaurant,Juice Bar,Fast Food Restaurant,Park,Playground,Sandwich Place,Indian Sweet Shop,Metro Station,Farmers Market,Chinese Restaurant
50041,IN,560005,Fraser Town,Karnataka,Bangalore,Bangalore North,13.2029,76.9627,0,0,0,0,0,0,0,0,0,0,0
50042,IN,560006,J.C.Nagar,Karnataka,Bangalore,Bangalore North,13.2029,76.9627,0,0,0,0,0,0,0,0,0,0,0
50043,IN,560006,Training Command IAF,Karnataka,Bangalore,Bangalore North,13.2029,76.9627,0,0,0,0,0,0,0,0,0,0,0
50044,IN,560007,Agram,Karnataka,Bangalore,Bangalore South,13.2029,76.9627,0,0,0,0,0,0,0,0,0,0,0
50045,IN,560007,Air Force Hospital,Karnataka,Bangalore,Bangalore North,13.2029,76.9627,0,0,0,0,0,0,0,0,0,0,0
50046,IN,560008,Hulsur Bazaar,Karnataka,Bangalore,Bangalore North,13.2029,76.9627,0,0,0,0,0,0,0,0,0,0,0
50047,IN,560008,H.A.L II Stage,Karnataka,Bangalore,Bangalore North,13.2029,76.9627,0,0,0,0,0,0,0,0,0,0,0
50048,IN,560009,K. G. Road,Karnataka,Bangalore,Bangalore North,13.2029,76.9627,0,0,0,0,0,0,0,0,0,0,0
50049,IN,560009,Bangalore Dist Offices Bldg,Karnataka,Bangalore,Bangalore North,13.2029,76.9627,0,0,0,0,0,0,0,0,0,0,0
50050,IN,560010,Rajajinagar,Karnataka,Bangalore,Bangalore North,12.9847,77.5491,4,Bakery,Snack Place,Fast Food Restaurant,Indian Restaurant,Vegetarian / Vegan Restaurant,Asian Restaurant,Fishing Store,Farmers Market,Event Service,Electronics Store
50051,IN,560010,Industrial Estate (Bangalore),Karnataka,Bangalore,Bangalore North,12.9847,77.5491,4,Bakery,Snack Place,Fast Food Restaurant,Indian Restaurant,Vegetarian / Vegan Restaurant,Asian Restaurant,Fishing Store,Farmers Market,Event Service,Electronics Store
50052,IN,560010,Rajajinagar IVth Block,Karnataka,Bangalore,Bangalore North,12.9847,77.5491,4,Bakery,Snack Place,Fast Food Restaurant,Indian Restaurant,Vegetarian / Vegan Restaurant,Asian Restaurant,Fishing Store,Farmers Market,Event Service,Electronics Store
50053,IN,560011,Jayangar III Block,Karnataka,Bangalore,Bangalore South,15.8266,76.2752,0,0,0,0,0,0,0,0,0,0,0
50054,IN,560011,Madhavan Park,Karnataka,Bangalore,Bangalore South,15.8266,76.2752,0,0,0,0,0,0,0,0,0,0,0
50055,IN,560012,Science Institute,Karnataka,Bangalore,Bangalore North,15.8266,76.2752,0,0,0,0,0,0,0,0,0,0,0
50056,IN,560013,Jalahalli,Karnataka,Bangalore,Bangalore North,13.0448,77.5474,4,Playground,Pool,Bakery,Indian Restaurant,Vegetarian / Vegan Restaurant,Farmers Market,Event Service,Electronics Store,Donut Shop,Dive Bar
50057,IN,560014,Jalahalli East,Karnataka,Bangalore,Bangalore North,15.8266,76.2752,0,0,0,0,0,0,0,0,0,0,0
50058,IN,560015,Jalahalli West,Karnataka,Bangalore,Bangalore North,15.8266,76.2752,0,0,0,0,0,0,0,0,0,0,0
50059,IN,560016,Krishnarajapuram R S,Karnataka,Bangalore,Bangalore North,15.8266,76.2752,0,0,0,0,0,0,0,0,0,0,0
50060,IN,560016,Doorvaninagar,Karnataka,Bangalore,Bangalore North,15.8266,76.2752,0,0,0,0,0,0,0,0,0,0,0
50061,IN,560016,Ramamurthy Nagar,Karnataka,Bangalore,Bangalore North,15.8266,76.2752,0,0,0,0,0,0,0,0,0,0,0
50062,IN,560017,Vimanapura,Karnataka,Bangalore,Bangalore North,21.4504,73.7291,0,0,0,0,0,0,0,0,0,0,0
50063,IN,560017,NAL,Karnataka,Bangalore,Bangalore North,21.4504,73.7291,0,0,0,0,0,0,0,0,0,0,0
50064,IN,560018,Chamrajpet (Bangalore),Karnataka,Bangalore,Bangalore South,15.8266,76.2752,0,0,0,0,0,0,0,0,0,0,0
50065,IN,560019,Gaviopuram Extension,Karnataka,Bangalore,Bangalore South,15.8266,76.2752,0,0,0,0,0,0,0,0,0,0,0
50066,IN,560020,Seshadripuram,Karnataka,Bangalore,Bangalore North,12.9879,77.5789,4,Hotel,Indian Restaurant,Ice Cream Shop,Karnataka Restaurant,Fast Food Restaurant,Seafood Restaurant,Arcade,Art Gallery,Vegetarian / Vegan Restaurant,Asian Restaurant
50067,IN,560021,Gayathrinagar,Karnataka,Bangalore,Bangalore North,12.9879,77.5625,4,Café,Wine Bar,Indian Restaurant,Multiplex,Zoo,Farmers Market,Event Service,Electronics Store,Donut Shop,Dive Bar
50068,IN,560021,Srirampuram,Karnataka,Bangalore,Bangalore North,12.9879,77.5625,4,Café,Wine Bar,Indian Restaurant,Multiplex,Zoo,Farmers Market,Event Service,Electronics Store,Donut Shop,Dive Bar
50069,IN,560022,Yeshwanthpur Bazar,Karnataka,Bangalore,Bangalore North,13.11,77.4484,3,Tourist Information Center,Flea Market,Fast Food Restaurant,Farmers Market,Event Service,Electronics Store,Donut Shop,Dive Bar,Diner,Zoo
50070,IN,560022,Yeswanthpura,Karnataka,Bangalore,Bangalore North,13.11,77.4484,3,Tourist Information Center,Flea Market,Fast Food Restaurant,Farmers Market,Event Service,Electronics Store,Donut Shop,Dive Bar,Diner,Zoo
50071,IN,560023,Magadi Road,Karnataka,Bangalore,Bangalore North,12.975,77.5489,4,Department Store,Metro Station,Indie Movie Theater,Shopping Mall,Bus Station,Multiplex,Toll Plaza,Design Studio,Dessert Shop,Diner
50072,IN,560024,Anandnagar (Bangalore),Karnataka,Bangalore,Bangalore North,13.11,77.4484,3,Tourist Information Center,Flea Market,Fast Food Restaurant,Farmers Market,Event Service,Electronics Store,Donut Shop,Dive Bar,Diner,Zoo
50073,IN,560024,Hebbal Kempapura,Karnataka,Bangalore,Bangalore North,13.11,77.4484,3,Tourist Information Center,Flea Market,Fast Food Restaurant,Farmers Market,Event Service,Electronics Store,Donut Shop,Dive Bar,Diner,Zoo
50074,IN,560024,H.A. Farm,Karnataka,Bangalore,Bangalore North,13.11,77.4484,3,Tourist Information Center,Flea Market,Fast Food Restaurant,Farmers Market,Event Service,Electronics Store,Donut Shop,Dive Bar,Diner,Zoo
50075,IN,560025,Museum Road,Karnataka,Bangalore,Bangalore North,12.9634,77.6025,4,Indian Restaurant,Lounge,Chinese Restaurant,Coffee Shop,Pizza Place,Bakery,Hockey Arena,Bed & Breakfast,Restaurant,Breakfast Spot
50076,IN,560025,Richmond Town,Karnataka,Bangalore,Bangalore North,12.9634,77.6025,4,Indian Restaurant,Lounge,Chinese Restaurant,Coffee Shop,Pizza Place,Bakery,Hockey Arena,Bed & Breakfast,Restaurant,Breakfast Spot
50077,IN,560025,CMP Centre And School,Karnataka,Bangalore,Bangalore North,12.9634,77.6025,4,Indian Restaurant,Lounge,Chinese Restaurant,Coffee Shop,Pizza Place,Bakery,Hockey Arena,Bed & Breakfast,Restaurant,Breakfast Spot
50078,IN,560026,Deepanjalinagar,Karnataka,Bangalore,Bangalore South,13.11,77.4484,3,Tourist Information Center,Flea Market,Fast Food Restaurant,Farmers Market,Event Service,Electronics Store,Donut Shop,Dive Bar,Diner,Zoo
50079,IN,560026,Governmemnt Electric Factory,Karnataka,Bangalore,Bangalore South,13.11,77.4484,3,Tourist Information Center,Flea Market,Fast Food Restaurant,Farmers Market,Event Service,Electronics Store,Donut Shop,Dive Bar,Diner,Zoo
50080,IN,560027,Sampangiramnagar,Karnataka,Bangalore,Bangalore South,12.9506,77.5952,4,Indian Restaurant,Hotel,Department Store,Café,Breakfast Spot,Asian Restaurant,Southern / Soul Food Restaurant,Coffee Shop,Park,Design Studio
50081,IN,560027,Wilson Garden,Karnataka,Bangalore,Bangalore South,12.9506,77.5952,4,Indian Restaurant,Hotel,Department Store,Café,Breakfast Spot,Asian Restaurant,Southern / Soul Food Restaurant,Coffee Shop,Park,Design Studio
50082,IN,560027,Shanthinagar,Karnataka,Bangalore,Bangalore South,12.9506,77.5952,4,Indian Restaurant,Hotel,Department Store,Café,Breakfast Spot,Asian Restaurant,Southern / Soul Food Restaurant,Coffee Shop,Park,Design Studio
50083,IN,560029,Tavarekere,Karnataka,Bangalore,Bangalore,13.7952,76.8024,0,0,0,0,0,0,0,0,0,0,0
50084,IN,560029,Dharmaram College,Karnataka,Bangalore,Bangalore South,13.7952,76.8024,0,0,0,0,0,0,0,0,0,0,0
50085,IN,560030,Adugodi,Karnataka,Bangalore,Bangalore South,12.944,77.6079,4,Fast Food Restaurant,Indian Restaurant,Bus Station,Design Studio,Zoo,Dive Bar,Farmers Market,Event Service,Electronics Store,Donut Shop
50086,IN,560032,R T Nagar,Karnataka,Bangalore,Bangalore North,12.937999999999999,77.6153,4,Indian Restaurant,Chinese Restaurant,Lounge,Dessert Shop,Pub,Bookstore,Café,Tea Room,Restaurant,Snack Place
50087,IN,560032,Kanakanagar,Karnataka,Bangalore,Bangalore,12.937999999999999,77.6153,4,Indian Restaurant,Chinese Restaurant,Lounge,Dessert Shop,Pub,Bookstore,Café,Tea Room,Restaurant,Snack Place
50088,IN,560032,P&T Col. Kavalbyrasandra,Karnataka,Bangalore,Bangalore North,12.937999999999999,77.6153,4,Indian Restaurant,Chinese Restaurant,Lounge,Dessert Shop,Pub,Bookstore,Café,Tea Room,Restaurant,Snack Place
50089,IN,560033,Maruthi Sevanagar,Karnataka,Bangalore,Bangalore North,12.937999999999999,77.6153,4,Indian Restaurant,Chinese Restaurant,Lounge,Dessert Shop,Pub,Bookstore,Café,Tea Room,Restaurant,Snack Place
50090,IN,560034,Agara,Karnataka,Bangalore,Bangalore South,12.932,77.6227,4,Café,Indian Restaurant,Ice Cream Shop,Coffee Shop,Pub,Lounge,Bar,Mexican Restaurant,Brewery,Breakfast Spot
50091,IN,560034,Koramangala,Karnataka,Bangalore,Bangalore South,12.932,77.6227,4,Café,Indian Restaurant,Ice Cream Shop,Coffee Shop,Pub,Lounge,Bar,Mexican Restaurant,Brewery,Breakfast Spot
50092,IN,560034,Koramangala I Block,Karnataka,Bangalore,Bangalore South,12.932,77.6227,4,Café,Indian Restaurant,Ice Cream Shop,Coffee Shop,Pub,Lounge,Bar,Mexican Restaurant,Brewery,Breakfast Spot
50093,IN,560034,St. John's Medical College,Karnataka,Bangalore,Bangalore South,12.932,77.6227,4,Café,Indian Restaurant,Ice Cream Shop,Coffee Shop,Pub,Lounge,Bar,Mexican Restaurant,Brewery,Breakfast Spot
50094,IN,560035,Carmelram,Karnataka,Bangalore,Bangalore South,12.937999999999999,77.6153,4,Indian Restaurant,Chinese Restaurant,Lounge,Dessert Shop,Pub,Bookstore,Café,Tea Room,Restaurant,Snack Place
50095,IN,560036,Krishnarajapuram,Karnataka,Bangalore,Bangalore North,12.937999999999999,77.6153,4,Indian Restaurant,Chinese Restaurant,Lounge,Dessert Shop,Pub,Bookstore,Café,Tea Room,Restaurant,Snack Place
50096,IN,560036,Devasandra,Karnataka,Bangalore,Bangalore North,12.937999999999999,77.6153,4,Indian Restaurant,Chinese Restaurant,Lounge,Dessert Shop,Pub,Bookstore,Café,Tea Room,Restaurant,Snack Place
50097,IN,560037,Marathahalli Colony,Karnataka,Bangalore,Bangalore North,12.937999999999999,77.6153,4,Indian Restaurant,Chinese Restaurant,Lounge,Dessert Shop,Pub,Bookstore,Café,Tea Room,Restaurant,Snack Place
50098,IN,560037,Doddanekkundi,Karnataka,Bangalore,Bangalore North,12.937999999999999,77.6153,4,Indian Restaurant,Chinese Restaurant,Lounge,Dessert Shop,Pub,Bookstore,Café,Tea Room,Restaurant,Snack Place
50099,IN,560037,Yemalur,Karnataka,Bangalore,Bangalore South,12.937999999999999,77.6153,4,Indian Restaurant,Chinese Restaurant,Lounge,Dessert Shop,Pub,Bookstore,Café,Tea Room,Restaurant,Snack Place
50100,IN,560037,Rameshnagar,Karnataka,Bangalore,Bangalore North,12.937999999999999,77.6153,4,Indian Restaurant,Chinese Restaurant,Lounge,Dessert Shop,Pub,Bookstore,Café,Tea Room,Restaurant,Snack Place
50101,IN,560037,Kundalahalli,Karnataka,Bangalore,Bangalore North,12.937999999999999,77.6153,4,Indian Restaurant,Chinese Restaurant,Lounge,Dessert Shop,Pub,Bookstore,Café,Tea Room,Restaurant,Snack Place
50102,IN,560038,Indiranagar (Bangalore),Karnataka,Bangalore,Bangalore North,12.937999999999999,77.6153,4,Indian Restaurant,Chinese Restaurant,Lounge,Dessert Shop,Pub,Bookstore,Café,Tea Room,Restaurant,Snack Place
50103,IN,560039,Nayandahalli,Karnataka,Bangalore,Bangalore South,12.937999999999999,77.6153,4,Indian Restaurant,Chinese Restaurant,Lounge,Dessert Shop,Pub,Bookstore,Café,Tea Room,Restaurant,Snack Place
50104,IN,560040,Chandra Lay Out,Karnataka,Bangalore,Bangalore North,12.6859,77.492,0,0,0,0,0,0,0,0,0,0,0
50105,IN,560040,Vijayanagar (Bangalore),Karnataka,Bangalore,Bangalore North,12.6859,77.492,0,0,0,0,0,0,0,0,0,0,0
50106,IN,560040,Vijayanagar East,Karnataka,Bangalore,Bangalore North,12.6859,77.492,0,0,0,0,0,0,0,0,0,0,0
50107,IN,560041,Jayanagar,Karnataka,Bangalore,Bangalore South,12.9278,77.5885,4,Indian Restaurant,Café,Fast Food Restaurant,Chinese Restaurant,Ice Cream Shop,Brewery,Mexican Restaurant,Shopping Plaza,Candy Store,Donut Shop
50108,IN,560041,Tilaknagar (Bangalore),Karnataka,Bangalore,Bangalore South,12.9278,77.5885,4,Indian Restaurant,Café,Fast Food Restaurant,Chinese Restaurant,Ice Cream Shop,Brewery,Mexican Restaurant,Shopping Plaza,Candy Store,Donut Shop
50109,IN,560042,Sivan Chetty Gardens,Karnataka,Bangalore,Bangalore North,12.6859,77.492,0,0,0,0,0,0,0,0,0,0,0
50110,IN,560043,Horamavu,Karnataka,Bangalore,Bangalore North,13.0158,77.6487,4,Indian Restaurant,Pharmacy,Café,Kerala Restaurant,Vegetarian / Vegan Restaurant,Dessert Shop,BBQ Joint,Juice Bar,Tea Room,Farmers Market
50111,IN,560043,Banaswadi,Karnataka,Bangalore,Bangalore North,13.0158,77.6487,4,Indian Restaurant,Pharmacy,Café,Kerala Restaurant,Vegetarian / Vegan Restaurant,Dessert Shop,BBQ Joint,Juice Bar,Tea Room,Farmers Market
50112,IN,560043,Jalavayuvihar,Karnataka,Bangalore,Bangalore North,13.0158,77.6487,4,Indian Restaurant,Pharmacy,Café,Kerala Restaurant,Vegetarian / Vegan Restaurant,Dessert Shop,BBQ Joint,Juice Bar,Tea Room,Farmers Market
50113,IN,560043,Kalyananagar,Karnataka,Bangalore,Bangalore North,13.0158,77.6487,4,Indian Restaurant,Pharmacy,Café,Kerala Restaurant,Vegetarian / Vegan Restaurant,Dessert Shop,BBQ Joint,Juice Bar,Tea Room,Farmers Market
50114,IN,560045,Nagawara,Karnataka,Bangalore,Bangalore North,13.036,77.6226,4,ATM,Pizza Place,Bus Station,Gym / Fitness Center,Diner,Farmers Market,Event Service,Electronics Store,Donut Shop,Dive Bar
50115,IN,560045,Arabic College,Karnataka,Bangalore,Bangalore North,13.036,77.6226,4,ATM,Pizza Place,Bus Station,Gym / Fitness Center,Diner,Farmers Market,Event Service,Electronics Store,Donut Shop,Dive Bar
50116,IN,560045,Venkateshapura,Karnataka,Bangalore,Bangalore North,13.036,77.6226,4,ATM,Pizza Place,Bus Station,Gym / Fitness Center,Diner,Farmers Market,Event Service,Electronics Store,Donut Shop,Dive Bar
50117,IN,560046,Benson Town,Karnataka,Bangalore,Bangalore North,12.9985,77.6044,4,Candy Store,Café,Pakistani Restaurant,Bakery,Fast Food Restaurant,Farmers Market,Event Service,Electronics Store,Donut Shop,Dive Bar
50118,IN,560047,Viveknagar (Bangalore),Karnataka,Bangalore,Bangalore South,12.6859,77.492,0,0,0,0,0,0,0,0,0,0,0
50119,IN,560047,Austin Town,Karnataka,Bangalore,Bangalore North,12.6859,77.492,0,0,0,0,0,0,0,0,0,0,0
50120,IN,560048,Hoodi,Karnataka,Bangalore,Bangalore North,12.9944,77.7164,4,Yoga Studio,Platform,Fast Food Restaurant,Bus Station,Dive Bar,Farmers Market,Event Service,Electronics Store,Donut Shop,Diner
50121,IN,560048,Mahadevapura,Karnataka,Bangalore,Bangalore North,12.9923,77.6869,0,Indian Restaurant,Convenience Store,Coffee Shop,Bus Station,Shopping Mall,Gym,Dive Bar,Farmers Market,Event Service,Electronics Store
50122,IN,560049,Mundur,Karnataka,Bangalore,Bangalore South,10.8368,76.5761,4,Bakery,Zoo,Flower Shop,Fishing Store,Fast Food Restaurant,Farmers Market,Event Service,Electronics Store,Donut Shop,Dive Bar
50123,IN,560049,Bidrahalli,Karnataka,Bangalore,Bangalore South,10.8368,76.5761,4,Bakery,Zoo,Flower Shop,Fishing Store,Fast Food Restaurant,Farmers Market,Event Service,Electronics Store,Donut Shop,Dive Bar
50124,IN,560049,Thambuchetty palya,Karnataka,Bangalore,Bangalore North,10.8368,76.5761,4,Bakery,Zoo,Flower Shop,Fishing Store,Fast Food Restaurant,Farmers Market,Event Service,Electronics Store,Donut Shop,Dive Bar
50125,IN,560049,Virgonagar,Karnataka,Bangalore,Bangalore North,10.8368,76.5761,4,Bakery,Zoo,Flower Shop,Fishing Store,Fast Food Restaurant,Farmers Market,Event Service,Electronics Store,Donut Shop,Dive Bar
50126,IN,560049,Bhattarahalli,Karnataka,Bangalore,Bangalore North,10.8368,76.5761,4,Bakery,Zoo,Flower Shop,Fishing Store,Fast Food Restaurant,Farmers Market,Event Service,Electronics Store,Donut Shop,Dive Bar
50127,IN,560050,Dasarahalli(Srinagar),Karnataka,Bangalore,Bangalore South,13.0323,77.5609,4,Fast Food Restaurant,Indian Restaurant,Cosmetics Shop,Diner,Bus Station,Café,Bakery,Gym,Ice Cream Shop,Dessert Shop
50128,IN,560050,State Bank Of Mysore Colony,Karnataka,Bangalore,Bangalore South,13.0323,77.5609,4,Fast Food Restaurant,Indian Restaurant,Cosmetics Shop,Diner,Bus Station,Café,Bakery,Gym,Ice Cream Shop,Dessert Shop
50129,IN,560050,Ashoknagar (Bangalore),Karnataka,Bangalore,Bangalore South,13.0323,77.5609,4,Fast Food Restaurant,Indian Restaurant,Cosmetics Shop,Diner,Bus Station,Café,Bakery,Gym,Ice Cream Shop,Dessert Shop
50130,IN,560050,Banashankari,Karnataka,Bangalore,Bangalore South,13.0323,77.5609,4,Fast Food Restaurant,Indian Restaurant,Cosmetics Shop,Diner,Bus Station,Café,Bakery,Gym,Ice Cream Shop,Dessert Shop
50131,IN,560051,H.K.P. Road,Karnataka,Bangalore,Bangalore North,13.0323,77.5609,4,Fast Food Restaurant,Indian Restaurant,Cosmetics Shop,Diner,Bus Station,Café,Bakery,Gym,Ice Cream Shop,Dessert Shop
50132,IN,560053,Chickpet,Karnataka,Bangalore,Bangalore South,13.0323,77.5609,4,Fast Food Restaurant,Indian Restaurant,Cosmetics Shop,Diner,Bus Station,Café,Bakery,Gym,Ice Cream Shop,Dessert Shop
50133,IN,560054,Mathikere,Karnataka,Bangalore,Bangalore North,13.0323,77.5609,4,Fast Food Restaurant,Indian Restaurant,Cosmetics Shop,Diner,Bus Station,Café,Bakery,Gym,Ice Cream Shop,Dessert Shop
50134,IN,560054,Msrit,Karnataka,Bangalore,Bangalore North,13.0323,77.5609,4,Fast Food Restaurant,Indian Restaurant,Cosmetics Shop,Diner,Bus Station,Café,Bakery,Gym,Ice Cream Shop,Dessert Shop
50135,IN,560054,Sri Chowdeshwari,Karnataka,Bangalore,Bangalore North,13.0323,77.5609,4,Fast Food Restaurant,Indian Restaurant,Cosmetics Shop,Diner,Bus Station,Café,Bakery,Gym,Ice Cream Shop,Dessert Shop
50136,IN,560055,Malleswaram West,Karnataka,Bangalore,Bangalore North,13.0323,77.5609,4,Fast Food Restaurant,Indian Restaurant,Cosmetics Shop,Diner,Bus Station,Café,Bakery,Gym,Ice Cream Shop,Dessert Shop
50137,IN,560055,Milk Colony,Karnataka,Bangalore,Bangalore North,13.0323,77.5609,4,Fast Food Restaurant,Indian Restaurant,Cosmetics Shop,Diner,Bus Station,Café,Bakery,Gym,Ice Cream Shop,Dessert Shop
50138,IN,560056,Bnagalore Viswavidalaya,Karnataka,Bangalore,Bangalore South,13.0323,77.5609,4,Fast Food Restaurant,Indian Restaurant,Cosmetics Shop,Diner,Bus Station,Café,Bakery,Gym,Ice Cream Shop,Dessert Shop
50139,IN,560056,Mallathahalli,Karnataka,Bangalore,Bangalore South,13.0323,77.5609,4,Fast Food Restaurant,Indian Restaurant,Cosmetics Shop,Diner,Bus Station,Café,Bakery,Gym,Ice Cream Shop,Dessert Shop
50140,IN,560057,Peenya Dasarahalli,Karnataka,Bangalore,Bangalore North,13.0323,77.5609,4,Fast Food Restaurant,Indian Restaurant,Cosmetics Shop,Diner,Bus Station,Café,Bakery,Gym,Ice Cream Shop,Dessert Shop
50141,IN,560058,Peenya Small Industries,Karnataka,Bangalore,Bangalore North,13.0323,77.5609,4,Fast Food Restaurant,Indian Restaurant,Cosmetics Shop,Diner,Bus Station,Café,Bakery,Gym,Ice Cream Shop,Dessert Shop
50142,IN,560058,Peenya I Stage,Karnataka,Bangalore,Bangalore North,13.0323,77.5609,4,Fast Food Restaurant,Indian Restaurant,Cosmetics Shop,Diner,Bus Station,Café,Bakery,Gym,Ice Cream Shop,Dessert Shop
50143,IN,560058,Laggere,Karnataka,Bangalore,Bangalore North,13.0323,77.5609,4,Fast Food Restaurant,Indian Restaurant,Cosmetics Shop,Diner,Bus Station,Café,Bakery,Gym,Ice Cream Shop,Dessert Shop
50144,IN,560058,Peenya II Stage,Karnataka,Bangalore,Bangalore North,13.0323,77.5609,4,Fast Food Restaurant,Indian Restaurant,Cosmetics Shop,Diner,Bus Station,Café,Bakery,Gym,Ice Cream Shop,Dessert Shop
50145,IN,560059,Rv Niketan,Karnataka,Bangalore,Bangalore South,13.0323,77.5609,4,Fast Food Restaurant,Indian Restaurant,Cosmetics Shop,Diner,Bus Station,Café,Bakery,Gym,Ice Cream Shop,Dessert Shop
50146,IN,560060,Chudenapura,Karnataka,Bangalore,Bangalore South,12.9121,77.48100000000001,4,Indian Restaurant,Café,Pharmacy,Restaurant,Zoo,Farmers Market,Event Service,Electronics Store,Donut Shop,Dive Bar
50150,IN,560061,Subramanyapura,Karnataka,Bangalore,Bangalore South,12.769,77.7432,2,IT Services,Hotel,Fishing Store,Fast Food Restaurant,Farmers Market,Event Service,Electronics Store,Donut Shop,Dive Bar,Diner
50151,IN,560061,Chikkalasandra,Karnataka,Bangalore,Bangalore South,12.769,77.7432,2,IT Services,Hotel,Fishing Store,Fast Food Restaurant,Farmers Market,Event Service,Electronics Store,Donut Shop,Dive Bar,Diner
50152,IN,560062,Doddakallasandra,Karnataka,Bangalore,Bangalore South,12.769,77.7432,2,IT Services,Hotel,Fishing Store,Fast Food Restaurant,Farmers Market,Event Service,Electronics Store,Donut Shop,Dive Bar,Diner
50153,IN,560062,Konanakunte,Karnataka,Bangalore,Bangalore South,12.769,77.7432,2,IT Services,Hotel,Fishing Store,Fast Food Restaurant,Farmers Market,Event Service,Electronics Store,Donut Shop,Dive Bar,Diner
50154,IN,560062,Tataguni,Karnataka,Bangalore,Bangalore South,12.769,77.7432,2,IT Services,Hotel,Fishing Store,Fast Food Restaurant,Farmers Market,Event Service,Electronics Store,Donut Shop,Dive Bar,Diner
50155,IN,560063,A F Station Yelahanka,Karnataka,Bangalore,Bangalore North,12.769,77.7432,2,IT Services,Hotel,Fishing Store,Fast Food Restaurant,Farmers Market,Event Service,Electronics Store,Donut Shop,Dive Bar,Diner
50156,IN,560063,BSF Campus Yelahanka,Karnataka,Bangalore,Bangalore North,12.769,77.7432,2,IT Services,Hotel,Fishing Store,Fast Food Restaurant,Farmers Market,Event Service,Electronics Store,Donut Shop,Dive Bar,Diner
50157,IN,560064,Singanayakanahalli,Karnataka,Bangalore,Bangalore North,12.3477,78.0988,0,0,0,0,0,0,0,0,0,0,0
50158,IN,560064,Yelahanka,Karnataka,Bangalore,Bangalore North,13.1013,77.5963,4,Flower Shop,Restaurant,Train Station,Bakery,Diner,Fast Food Restaurant,Farmers Market,Event Service,Electronics Store,Donut Shop
50159,IN,560064,Yelahanka Satellite Town,Karnataka,Bangalore,0,12.3477,78.0988,0,0,0,0,0,0,0,0,0,0,0
50160,IN,560064,Attur,Karnataka,Bangalore,Bangalore North,11.5941,78.6014,1,ATM,Pharmacy,Diner,Fast Food Restaurant,Farmers Market,Event Service,Electronics Store,Donut Shop,Dive Bar,Dessert Shop
50161,IN,560064,Rajanakunte,Karnataka,Bangalore,Bangalore North,12.3477,78.0988,0,0,0,0,0,0,0,0,0,0,0
50162,IN,560064,CRPF Campus Yelahanka,Karnataka,Bangalore,Bangalore North,12.3477,78.0988,0,0,0,0,0,0,0,0,0,0,0
50163,IN,560064,Jakkur,Karnataka,Bangalore,Bangalore North,12.3477,78.0988,0,0,0,0,0,0,0,0,0,0,0
50164,IN,560065,G.K.V.K.,Karnataka,Bangalore,Bangalore North,12.769,77.7432,2,IT Services,Hotel,Fishing Store,Fast Food Restaurant,Farmers Market,Event Service,Electronics Store,Donut Shop,Dive Bar,Diner
50165,IN,560066,EPIP,Karnataka,Bangalore,Bangalore,12.9716,77.7473,4,Pizza Place,Indian Sweet Shop,Gym / Fitness Center,Bakery,Zoo,Diner,Fast Food Restaurant,Farmers Market,Event Service,Electronics Store
50166,IN,560066,Whitefield,Karnataka,Bangalore,Bangalore South,12.9716,77.7473,4,Pizza Place,Indian Sweet Shop,Gym / Fitness Center,Bakery,Zoo,Diner,Fast Food Restaurant,Farmers Market,Event Service,Electronics Store
50167,IN,560066,Immedihalli,Karnataka,Bangalore,Bangalore North,12.9716,77.7473,4,Pizza Place,Indian Sweet Shop,Gym / Fitness Center,Bakery,Zoo,Diner,Fast Food Restaurant,Farmers Market,Event Service,Electronics Store
50168,IN,560066,Ramagondana Halli,Karnataka,Bangalore,Bangalore North,12.9716,77.7473,4,Pizza Place,Indian Sweet Shop,Gym / Fitness Center,Bakery,Zoo,Diner,Fast Food Restaurant,Farmers Market,Event Service,Electronics Store
50171,IN,560067,Devanagundi,Karnataka,Bangalore,Bangalore South,12.769,77.7432,2,IT Services,Hotel,Fishing Store,Fast Food Restaurant,Farmers Market,Event Service,Electronics Store,Donut Shop,Dive Bar,Diner
50172,IN,560067,Kadugodi,Karnataka,Bangalore,Bangalore South,12.769,77.7432,2,IT Services,Hotel,Fishing Store,Fast Food Restaurant,Farmers Market,Event Service,Electronics Store,Donut Shop,Dive Bar,Diner
50173,IN,560067,Kannamangala,Karnataka,Bangalore,Bangalore South,12.769,77.7432,2,IT Services,Hotel,Fishing Store,Fast Food Restaurant,Farmers Market,Event Service,Electronics Store,Donut Shop,Dive Bar,Diner
50174,IN,560067,Medimallasandra,Karnataka,Bangalore,Bangalore South,12.769,77.7432,2,IT Services,Hotel,Fishing Store,Fast Food Restaurant,Farmers Market,Event Service,Electronics Store,Donut Shop,Dive Bar,Diner
50175,IN,560067,Kadugodi Extention SO,Karnataka,Bangalore,Banglore,12.769,77.7432,2,IT Services,Hotel,Fishing Store,Fast Food Restaurant,Farmers Market,Event Service,Electronics Store,Donut Shop,Dive Bar,Diner
50177,IN,560068,Begur,Karnataka,Bangalore,Bangalore South,12.8706,77.6279,4,Herbs & Spices Store,Zoo,Diner,Fast Food Restaurant,Farmers Market,Event Service,Electronics Store,Donut Shop,Dive Bar,Dessert Shop
50178,IN,560068,Hongasandra,Karnataka,Bangalore,Bangalore South,12.8949,77.626,4,Bakery,Zoo,Flower Shop,Fishing Store,Fast Food Restaurant,Farmers Market,Event Service,Electronics Store,Donut Shop,Dive Bar
50180,IN,560068,Madivala,Karnataka,Bangalore,Bangalore South,12.924000000000001,77.6209,4,Indian Restaurant,Department Store,Hotel,Bus Station,Ice Cream Shop,Park,Indie Movie Theater,Halal Restaurant,Bus Stop,Fast Food Restaurant
50181,IN,560068,Bommanahalli (Bangalore),Karnataka,Bangalore,Bangalore South,12.8931,77.6299,4,Bakery,Indie Movie Theater,Zoo,Dive Bar,Fishing Store,Fast Food Restaurant,Farmers Market,Event Service,Electronics Store,Donut Shop
50182,IN,560070,Tyagrajnagar,Karnataka,Bangalore,Bangalore South,12.9229,77.5798,0,Indian Restaurant,Coffee Shop,Park,Hookah Bar,Ice Cream Shop,Asian Restaurant,Italian Restaurant,Fast Food Restaurant,Salad Place,Diner
50183,IN,560070,B Sk II Stage,Karnataka,Bangalore,Bangalore South,12.9229,77.5798,0,Indian Restaurant,Coffee Shop,Park,Hookah Bar,Ice Cream Shop,Asian Restaurant,Italian Restaurant,Fast Food Restaurant,Salad Place,Diner
50184,IN,560070,Padmanabhnagar,Karnataka,Bangalore,Bangalore South,12.9229,77.5798,0,Indian Restaurant,Coffee Shop,Park,Hookah Bar,Ice Cream Shop,Asian Restaurant,Italian Restaurant,Fast Food Restaurant,Salad Place,Diner
50185,IN,560070,Jayanagar West,Karnataka,Bangalore,Bangalore South,12.9229,77.5798,0,Indian Restaurant,Coffee Shop,Park,Hookah Bar,Ice Cream Shop,Asian Restaurant,Italian Restaurant,Fast Food Restaurant,Salad Place,Diner
50186,IN,560071,Domlur,Karnataka,Bangalore,Bangalore North,12.9617,77.6391,4,Indian Restaurant,Café,Sports Bar,Lounge,Rajasthani Restaurant,Liquor Store,Sandwich Place,Bookstore,Food & Drink Shop,Italian Restaurant
50187,IN,560072,Nagarbhavi,Karnataka,Bangalore,Bangalore North,12.9801,77.5113,4,Breakfast Spot,Pizza Place,Dance Studio,Liquor Store,Café,Donut Shop,Fishing Store,Fast Food Restaurant,Farmers Market,Event Service
50188,IN,560073,Nagasandra (Bangalore),Karnataka,Bangalore,Bangalore North,12.9229,77.5798,0,Indian Restaurant,Coffee Shop,Park,Hookah Bar,Ice Cream Shop,Asian Restaurant,Italian Restaurant,Fast Food Restaurant,Salad Place,Diner
50189,IN,560073,Nelakadiranahalli,Karnataka,Bangalore,Bangalore North,12.9229,77.5798,0,Indian Restaurant,Coffee Shop,Park,Hookah Bar,Ice Cream Shop,Asian Restaurant,Italian Restaurant,Fast Food Restaurant,Salad Place,Diner
50190,IN,560073,Bagalgunte,Karnataka,Bangalore,Bangalore North,12.9229,77.5798,0,Indian Restaurant,Coffee Shop,Park,Hookah Bar,Ice Cream Shop,Asian Restaurant,Italian Restaurant,Fast Food Restaurant,Salad Place,Diner
50191,IN,560073,Chikkabidarkal,Karnataka,Bangalore,Bangalore North,12.9229,77.5798,0,Indian Restaurant,Coffee Shop,Park,Hookah Bar,Ice Cream Shop,Asian Restaurant,Italian Restaurant,Fast Food Restaurant,Salad Place,Diner
50192,IN,560074,Kumbalagodu,Karnataka,Bangalore,Bangalore South,12.9229,77.5798,0,Indian Restaurant,Coffee Shop,Park,Hookah Bar,Ice Cream Shop,Asian Restaurant,Italian Restaurant,Fast Food Restaurant,Salad Place,Diner
50193,IN,560074,Ramohalli,Karnataka,Bangalore,Bangalore South,12.9229,77.5798,0,Indian Restaurant,Coffee Shop,Park,Hookah Bar,Ice Cream Shop,Asian Restaurant,Italian Restaurant,Fast Food Restaurant,Salad Place,Diner
50194,IN,560074,Kumbalgodu Gollahalli,Karnataka,Bangalore,Bangalore South,12.9229,77.5798,0,Indian Restaurant,Coffee Shop,Park,Hookah Bar,Ice Cream Shop,Asian Restaurant,Italian Restaurant,Fast Food Restaurant,Salad Place,Diner
50195,IN,560075,Jeevanbhimanagar,Karnataka,Bangalore,Bangalore North,12.9229,77.5798,0,Indian Restaurant,Coffee Shop,Park,Hookah Bar,Ice Cream Shop,Asian Restaurant,Italian Restaurant,Fast Food Restaurant,Salad Place,Diner
50196,IN,560075,New Thippasandra,Karnataka,Bangalore,Bangalore North,12.9229,77.5798,0,Indian Restaurant,Coffee Shop,Park,Hookah Bar,Ice Cream Shop,Asian Restaurant,Italian Restaurant,Fast Food Restaurant,Salad Place,Diner
50197,IN,560075,Jeevabhimanagar,Karnataka,Bangalore,Bangalore North,12.9229,77.5798,0,Indian Restaurant,Coffee Shop,Park,Hookah Bar,Ice Cream Shop,Asian Restaurant,Italian Restaurant,Fast Food Restaurant,Salad Place,Diner
50198,IN,560076,Bannerghatta Road,Karnataka,Bangalore,Bangalore South,12.8939,77.5978,4,Indian Restaurant,Ice Cream Shop,Fast Food Restaurant,Department Store,Café,Chinese Restaurant,Pizza Place,Burger Joint,South Indian Restaurant,Liquor Store
50199,IN,560076,Mico Layout,Karnataka,Bangalore,Bangalore South,12.9106,77.6001,4,Indian Restaurant,Clothing Store,Multiplex,Café,Coffee Shop,Bookstore,Pub,Dessert Shop,Shopping Mall,Fast Food Restaurant
50200,IN,560076,Mount St Joseph,Karnataka,Bangalore,Bangalore South,12.8939,77.5978,4,Indian Restaurant,Ice Cream Shop,Fast Food Restaurant,Department Store,Café,Chinese Restaurant,Pizza Place,Burger Joint,South Indian Restaurant,Liquor Store
50201,IN,560076,Hulimavu,Karnataka,Bangalore,Bangalore,12.8771,77.5956,4,Clothing Store,Multiplex,Café,Movie Theater,Electronics Store,Fast Food Restaurant,Snack Place,Department Store,Ice Cream Shop,Indian Restaurant
50202,IN,560076,Bilekahalli,Karnataka,Bangalore,Bangalore South,12.8939,77.5978,4,Indian Restaurant,Ice Cream Shop,Fast Food Restaurant,Department Store,Café,Chinese Restaurant,Pizza Place,Burger Joint,South Indian Restaurant,Liquor Store
50203,IN,560076,JP Nagar VIII phase,Karnataka,Bangalore,Bangalore South,12.8939,77.5978,4,Indian Restaurant,Ice Cream Shop,Fast Food Restaurant,Department Store,Café,Chinese Restaurant,Pizza Place,Burger Joint,South Indian Restaurant,Liquor Store
50204,IN,560077,Kothanur,Karnataka,Bangalore,Bangalore North,12.9229,77.5798,0,Indian Restaurant,Coffee Shop,Park,Hookah Bar,Ice Cream Shop,Asian Restaurant,Italian Restaurant,Fast Food Restaurant,Salad Place,Diner
50205,IN,560077,Dr. Shivarama Karanth Nagar,Karnataka,Bangalore,Bangalore North,12.9229,77.5798,0,Indian Restaurant,Coffee Shop,Park,Hookah Bar,Ice Cream Shop,Asian Restaurant,Italian Restaurant,Fast Food Restaurant,Salad Place,Diner
50206,IN,560077,Doddagubbi,Karnataka,Bangalore,Bangalore North,12.9229,77.5798,0,Indian Restaurant,Coffee Shop,Park,Hookah Bar,Ice Cream Shop,Asian Restaurant,Italian Restaurant,Fast Food Restaurant,Salad Place,Diner
50207,IN,560078,Yelachenahalli,Karnataka,Bangalore,Bangalore South,12.902000000000001,77.5709,4,Pizza Place,Zoo,Diner,Fast Food Restaurant,Farmers Market,Event Service,Electronics Store,Donut Shop,Dive Bar,Dessert Shop
50208,IN,560078,Kumaraswamy Layout,Karnataka,Bangalore,Bangalore South,12.9057,77.5617,4,Sandwich Place,Ice Cream Shop,Burger Joint,Movie Theater,Food Truck,Café,Breakfast Spot,Donut Shop,Farmers Market,Event Service
50209,IN,560078,J P Nagar,Karnataka,Bangalore,Bangalore South,12.9038,77.5663,4,Juice Bar,Burger Joint,Food Truck,Breakfast Spot,Dive Bar,Fast Food Restaurant,Farmers Market,Event Service,Electronics Store,Donut Shop
50210,IN,560078,JP Nagar III Phase,Karnataka,Bangalore,Bangalore South,12.9038,77.5663,4,Juice Bar,Burger Joint,Food Truck,Breakfast Spot,Dive Bar,Fast Food Restaurant,Farmers Market,Event Service,Electronics Store,Donut Shop
50211,IN,560079,Kamakshipalya,Karnataka,Bangalore,Bangalore North,12.9229,77.5798,0,Indian Restaurant,Coffee Shop,Park,Hookah Bar,Ice Cream Shop,Asian Restaurant,Italian Restaurant,Fast Food Restaurant,Salad Place,Diner
50212,IN,560079,K H B Colony,Karnataka,Bangalore,Bangalore North,12.9229,77.5798,0,Indian Restaurant,Coffee Shop,Park,Hookah Bar,Ice Cream Shop,Asian Restaurant,Italian Restaurant,Fast Food Restaurant,Salad Place,Diner
50213,IN,560079,Basaveshwaranagar,Karnataka,Bangalore,Bangalore North,12.9229,77.5798,0,Indian Restaurant,Coffee Shop,Park,Hookah Bar,Ice Cream Shop,Asian Restaurant,Italian Restaurant,Fast Food Restaurant,Salad Place,Diner
50214,IN,560080,Sadashivanagar,Karnataka,Bangalore,Bangalore North,13.0104,77.5806,4,Coffee Shop,Café,Gym,Department Store,Seafood Restaurant,Snack Place,Flea Market,Vegetarian / Vegan Restaurant,Indian Restaurant,Ice Cream Shop
50215,IN,560081,Chandapura,Karnataka,Bangalore,Bangalore,12.8029,77.7036,0,Fishing Store,Indian Restaurant,Asian Restaurant,Zoo,Dive Bar,Fast Food Restaurant,Farmers Market,Event Service,Electronics Store,Donut Shop
50221,IN,560082,Bolare,Karnataka,Bangalore,Bangalore South,12.7717,77.5053,4,Zoo,Yoga Studio,Fishing Store,Fast Food Restaurant,Farmers Market,Event Service,Electronics Store,Donut Shop,Dive Bar,Diner
50222,IN,560083,Gottigere,Karnataka,Bangalore,Bangalore South,12.8608,77.5896,4,Gym,Italian Restaurant,Dessert Shop,Fast Food Restaurant,Farmers Market,Event Service,Electronics Store,Donut Shop,Dive Bar,Diner
50223,IN,560083,Ragihalli,Karnataka,Bangalore,Anekal,12.9329,77.6215,4,Café,Indian Restaurant,Coffee Shop,Italian Restaurant,Pub,Dessert Shop,Lounge,Kerala Restaurant,Ice Cream Shop,Bar
50226,IN,560083,Bannerghatta,Karnataka,Bangalore,Bangalore South,12.9023,77.6011,0,Andhra Restaurant,Indian Restaurant,Asian Restaurant,Italian Restaurant,Middle Eastern Restaurant,Zoo,Donut Shop,Fishing Store,Fast Food Restaurant,Farmers Market
50227,IN,560084,Lingarajapuram,Karnataka,Bangalore,Bangalore North,13.0096,77.6374,4,Sporting Goods Shop,Diner,Pizza Place,Restaurant,Lake,Farmers Market,Event Service,Electronics Store,Donut Shop,Dive Bar
50228,IN,560084,Kacharakanahalli,Karnataka,Bangalore,Bangalore North,13.0096,77.6374,4,Sporting Goods Shop,Diner,Pizza Place,Restaurant,Lake,Farmers Market,Event Service,Electronics Store,Donut Shop,Dive Bar
50229,IN,560084,St. Thomas Town,Karnataka,Bangalore,Bangalore North,13.0096,77.6374,4,Sporting Goods Shop,Diner,Pizza Place,Restaurant,Lake,Farmers Market,Event Service,Electronics Store,Donut Shop,Dive Bar
50230,IN,560085,Byatarayanapura,Karnataka,Bangalore,Bangalore South,13.0611,77.593,4,Indian Restaurant,Pizza Place,Bubble Tea Shop,Fast Food Restaurant,Department Store,Chinese Restaurant,Ice Cream Shop,Wine Shop,Brewery,Deli / Bodega
50231,IN,560085,Kathriguppe,Karnataka,Bangalore,Bangalore South,12.9299,77.5523,4,Clothing Store,Fast Food Restaurant,Miscellaneous Shop,Smoke Shop,Indian Restaurant,Shoe Store,North Indian Restaurant,Breakfast Spot,Café,Donut Shop
50232,IN,560085,Girinagar (Bangalore),Karnataka,Bangalore,Bangalore South,12.9955,77.5726,4,Indian Restaurant,Clothing Store,Electronics Store,Department Store,Coffee Shop,Vegetarian / Vegan Restaurant,Pizza Place,Donut Shop,Fast Food Restaurant,Ice Cream Shop
50233,IN,560085,Hosakerehalli,Karnataka,Bangalore,Bangalore South,12.9955,77.5726,4,Indian Restaurant,Clothing Store,Electronics Store,Department Store,Coffee Shop,Vegetarian / Vegan Restaurant,Pizza Place,Donut Shop,Fast Food Restaurant,Ice Cream Shop
50234,IN,560085,Banashankari III Stage,Karnataka,Bangalore,Bangalore South,12.9955,77.5726,4,Indian Restaurant,Clothing Store,Electronics Store,Department Store,Coffee Shop,Vegetarian / Vegan Restaurant,Pizza Place,Donut Shop,Fast Food Restaurant,Ice Cream Shop
50235,IN,560086,West of Chord Road II stage,Karnataka,Bangalore,Bangalore North,12.9316,77.6041,4,Indian Restaurant,Juice Bar,Coffee Shop,Sports Bar,Supermarket,Sandwich Place,Middle Eastern Restaurant,Department Store,Design Studio,Dessert Shop
50236,IN,560086,Mahalakshmipuram Layout,Karnataka,Bangalore,Bangalore North,12.9316,77.6041,4,Indian Restaurant,Juice Bar,Coffee Shop,Sports Bar,Supermarket,Sandwich Place,Middle Eastern Restaurant,Department Store,Design Studio,Dessert Shop
50237,IN,560087,Vartur,Karnataka,Bangalore,Bangalore South,12.9316,77.6041,4,Indian Restaurant,Juice Bar,Coffee Shop,Sports Bar,Supermarket,Sandwich Place,Middle Eastern Restaurant,Department Store,Design Studio,Dessert Shop
50238,IN,560087,Muthusandra,Karnataka,Bangalore,Bangalore South,12.9316,77.6041,4,Indian Restaurant,Juice Bar,Coffee Shop,Sports Bar,Supermarket,Sandwich Place,Middle Eastern Restaurant,Department Store,Design Studio,Dessert Shop
50239,IN,560087,Gunjur,Karnataka,Bangalore,Bangalore North,12.9316,77.6041,4,Indian Restaurant,Juice Bar,Coffee Shop,Sports Bar,Supermarket,Sandwich Place,Middle Eastern Restaurant,Department Store,Design Studio,Dessert Shop
50246,IN,560090,Tarabanahalli,Karnataka,Bangalore,Bangalore North,13.0068,77.5971,4,Café,Asian Restaurant,Auto Garage,Bed & Breakfast,Zoo,Donut Shop,Fishing Store,Fast Food Restaurant,Farmers Market,Event Service
50249,IN,560091,Herohalli,Karnataka,Bangalore,Bangalore North,13.0583,77.5732,4,Platform,Event Service,Movie Theater,Arts & Crafts Store,Bar,Dive Bar,Fast Food Restaurant,Farmers Market,Electronics Store,Donut Shop
50250,IN,560091,Bapagrama,Karnataka,Bangalore,Bangalore North,13.0583,77.5732,4,Platform,Event Service,Movie Theater,Arts & Crafts Store,Bar,Dive Bar,Fast Food Restaurant,Farmers Market,Electronics Store,Donut Shop
50251,IN,560091,Viswaneedam,Karnataka,Bangalore,Bangalore North,13.0583,77.5732,4,Platform,Event Service,Movie Theater,Arts & Crafts Store,Bar,Dive Bar,Fast Food Restaurant,Farmers Market,Electronics Store,Donut Shop
50252,IN,560091,Herohalli,Karnataka,Bangalore,Bangalore north,13.0583,77.5732,4,Platform,Event Service,Movie Theater,Arts & Crafts Store,Bar,Dive Bar,Fast Food Restaurant,Farmers Market,Electronics Store,Donut Shop
50253,IN,560092,Amruthahalli,Karnataka,Bangalore,Bangalore North,13.0597,77.5831,4,Hyderabadi Restaurant,Indian Sweet Shop,Café,Italian Restaurant,Resort,Badminton Court,Coffee Shop,Fast Food Restaurant,Deli / Bodega,Department Store
50254,IN,560092,Byatarayanapura,Karnataka,Bangalore,Bangalore North,13.0611,77.593,4,Indian Restaurant,Pizza Place,Bubble Tea Shop,Fast Food Restaurant,Department Store,Chinese Restaurant,Ice Cream Shop,Wine Shop,Brewery,Deli / Bodega
50255,IN,560092,Kodigehalli,Karnataka,Bangalore,Bangalore North,13.0583,77.5732,4,Platform,Event Service,Movie Theater,Arts & Crafts Store,Bar,Dive Bar,Fast Food Restaurant,Farmers Market,Electronics Store,Donut Shop
50256,IN,560092,Sahakaranagar P.O,Karnataka,Bangalore,Bangalore North,13.0597,77.5831,4,Hyderabadi Restaurant,Indian Sweet Shop,Café,Italian Restaurant,Resort,Badminton Court,Coffee Shop,Fast Food Restaurant,Deli / Bodega,Department Store
50257,IN,560093,C.V.Raman Nagar,Karnataka,Bangalore,Bangalore North,13.0068,77.5971,4,Café,Asian Restaurant,Auto Garage,Bed & Breakfast,Zoo,Donut Shop,Fishing Store,Fast Food Restaurant,Farmers Market,Event Service
50258,IN,560094,ISRO Anthariksha Bhavan,Karnataka,Bangalore,Bangalore North,13.0068,77.5971,4,Café,Asian Restaurant,Auto Garage,Bed & Breakfast,Zoo,Donut Shop,Fishing Store,Fast Food Restaurant,Farmers Market,Event Service
50259,IN,560094,R.M.V. Extension II Stage,Karnataka,Bangalore,Bangalore North,13.0068,77.5971,4,Café,Asian Restaurant,Auto Garage,Bed & Breakfast,Zoo,Donut Shop,Fishing Store,Fast Food Restaurant,Farmers Market,Event Service
50260,IN,560095,Koramangala VI Bk,Karnataka,Bangalore,Bangalore South,13.0068,77.5971,4,Café,Asian Restaurant,Auto Garage,Bed & Breakfast,Zoo,Donut Shop,Fishing Store,Fast Food Restaurant,Farmers Market,Event Service
50261,IN,560096,Nandinilayout,Karnataka,Bangalore,Bangalore North,13.0134,77.5361,4,Park,Vegetarian / Vegan Restaurant,Bakery,Zoo,Dive Bar,Fast Food Restaurant,Farmers Market,Event Service,Electronics Store,Donut Shop
50262,IN,560097,Chikkabettahalli,Karnataka,Bangalore,Bangalore North,13.0814,77.5566,4,Pizza Place,Department Store,Dessert Shop,Bus Station,Zoo,Donut Shop,Fast Food Restaurant,Farmers Market,Event Service,Electronics Store
50263,IN,560097,Vidyaranyapura,Karnataka,Bangalore,Bangalore North,13.0814,77.5566,4,Pizza Place,Department Store,Dessert Shop,Bus Station,Zoo,Donut Shop,Fast Food Restaurant,Farmers Market,Event Service,Electronics Store
50264,IN,560098,Rajarajeshwarinagar,Karnataka,Bangalore,Bangalore South,13.1195,77.5837,0,0,0,0,0,0,0,0,0,0,0
50265,IN,560098,Kenchanahalli,Karnataka,Bangalore,Bangalore South,13.1195,77.5837,0,0,0,0,0,0,0,0,0,0,0
50266,IN,560099,Bommasandra Industrial Estate,Karnataka,Bangalore,Bangalore South,12.8311,77.6804,4,Indian Restaurant,Bus Station,Café,Zoo,Dive Bar,Fast Food Restaurant,Farmers Market,Event Service,Electronics Store,Donut Shop
50267,IN,560099,Hebbagodi,Karnataka,Bangalore,Bangalore South,12.8263,77.6809,4,Hotel,Pizza Place,Indian Restaurant,Bus Station,Dive Bar,Fast Food Restaurant,Farmers Market,Event Service,Electronics Store,Donut Shop
50268,IN,560099,Muthanallur,Karnataka,Bangalore,Bangalore South,12.8311,77.6804,4,Indian Restaurant,Bus Station,Café,Zoo,Dive Bar,Fast Food Restaurant,Farmers Market,Event Service,Electronics Store,Donut Shop
50270,IN,560100,Electronics City,Karnataka,Bangalore,Bangalore South,12.8458,77.6727,4,Toll Plaza,Indian Restaurant,Bus Station,Outlet Store,Middle Eastern Restaurant,Deli / Bodega,Department Store,Design Studio,Dessert Shop,Dance Studio
50271,IN,560100,Wipro Limited,Karnataka,Bangalore,Bangalore South,12.8458,77.6727,4,Toll Plaza,Indian Restaurant,Bus Station,Outlet Store,Middle Eastern Restaurant,Deli / Bodega,Department Store,Design Studio,Dessert Shop,Dance Studio
50272,IN,560102,HSR Layout,Karnataka,Bangalore,Bangalore South,13.1791,77.0942,0,0,0,0,0,0,0,0,0,0,0
50273,IN,560103,Bellandur,Karnataka,Bangalore,Bangalore South,12.9255,77.6765,4,Indian Restaurant,Fast Food Restaurant,Café,Pizza Place,Kerala Restaurant,Japanese Restaurant,Lake,Bookstore,Food Court,Juice Bar
50274,IN,560103,Panathur,Karnataka,Bangalore,Bangalore South,12.9255,77.6765,4,Indian Restaurant,Fast Food Restaurant,Café,Pizza Place,Kerala Restaurant,Japanese Restaurant,Lake,Bookstore,Food Court,Juice Bar
50275,IN,560104,Hampinagar,Karnataka,Bangalore,Bangalore North,13.1791,77.0942,0,0,0,0,0,0,0,0,0,0,0
50276,IN,560105,Kallubalu,Karnataka,Bangalore,Anekal,12.7861,77.6385,0,0,0,0,0,0,0,0,0,0,0
50277,IN,560105,Jigani,Karnataka,Bangalore,Anekal,12.7861,77.6385,0,0,0,0,0,0,0,0,0,0,0
50278,IN,560105,Hennagara,Karnataka,Bangalore,Anekal,12.7861,77.6385,0,0,0,0,0,0,0,0,0,0,0
50279,IN,560105,Hulimangala,Karnataka,Bangalore,Anekal,12.7861,77.6385,0,0,0,0,0,0,0,0,0,0,0
50280,IN,560105,Haragadde,Karnataka,Bangalore,Anekal,12.7861,77.6385,0,0,0,0,0,0,0,0,0,0,0
50282,IN,560108,Anjanapura,Karnataka,Bangalore,Bangalore,14.159,75.3889,0,0,0,0,0,0,0,0,0,0,0
50283,IN,560109,Thalaghattapura,Karnataka,Bangalore,Bangalore South,13.1791,77.0942,0,0,0,0,0,0,0,0,0,0,0
50284,IN,560110,Ullalu Upanagar,Karnataka,Bangalore,Bangalore,13.1791,77.0942,0,0,0,0,0,0,0,0,0,0,0
50285,IN,560300,Bangalore International Airport,Karnataka,Bangalore,0,13.0967,77.4335,0,0,0,0,0,0,0,0,0,0,0
50499,IN,562106,Anekal,Karnataka,Bangalore,Anekal,12.7111,77.6956,1,ATM,Yoga Studio,Fishing Store,Fast Food Restaurant,Farmers Market,Event Service,Electronics Store,Donut Shop,Dive Bar,Diner
50500,IN,562106,Vanakanahalli,Karnataka,Bangalore,Anekal,12.7111,77.6956,1,ATM,Yoga Studio,Fishing Store,Fast Food Restaurant,Farmers Market,Event Service,Electronics Store,Donut Shop,Dive Bar,Diner
50501,IN,562106,Thammanayakanahalli,Karnataka,Bangalore,Anekal,12.7111,77.6956,1,ATM,Yoga Studio,Fishing Store,Fast Food Restaurant,Farmers Market,Event Service,Electronics Store,Donut Shop,Dive Bar,Diner
50502,IN,562106,Bestamaranahalli,Karnataka,Bangalore,Anekal,12.7111,77.6956,1,ATM,Yoga Studio,Fishing Store,Fast Food Restaurant,Farmers Market,Event Service,Electronics Store,Donut Shop,Dive Bar,Diner
50503,IN,562106,Sidihoskote,Karnataka,Bangalore,Anekal,12.7111,77.6956,1,ATM,Yoga Studio,Fishing Store,Fast Food Restaurant,Farmers Market,Event Service,Electronics Store,Donut Shop,Dive Bar,Diner
50504,IN,562106,Guddanahalli,Karnataka,Bangalore,Anekal,12.7111,77.6956,1,ATM,Yoga Studio,Fishing Store,Fast Food Restaurant,Farmers Market,Event Service,Electronics Store,Donut Shop,Dive Bar,Diner
50505,IN,562106,Indalavadi,Karnataka,Bangalore,Anekal,12.7111,77.6956,1,ATM,Yoga Studio,Fishing Store,Fast Food Restaurant,Farmers Market,Event Service,Electronics Store,Donut Shop,Dive Bar,Diner
50506,IN,562106,Marsur,Karnataka,Bangalore,Anekal,12.7111,77.6956,1,ATM,Yoga Studio,Fishing Store,Fast Food Restaurant,Farmers Market,Event Service,Electronics Store,Donut Shop,Dive Bar,Diner
50507,IN,562106,Samandur,Karnataka,Bangalore,Anekal,12.7111,77.6956,1,ATM,Yoga Studio,Fishing Store,Fast Food Restaurant,Farmers Market,Event Service,Electronics Store,Donut Shop,Dive Bar,Diner
50508,IN,562107,Yadavanahalli,Karnataka,Bangalore,Anekal,12.7781,77.7726,4,South Indian Restaurant,Bakery,Indian Restaurant,Bus Station,Fishing Store,Fast Food Restaurant,Farmers Market,Event Service,Electronics Store,Donut Shop
50509,IN,562107,Attibele,Karnataka,Bangalore,Anekal,12.7781,77.7726,4,South Indian Restaurant,Bakery,Indian Restaurant,Bus Station,Fishing Store,Fast Food Restaurant,Farmers Market,Event Service,Electronics Store,Donut Shop
50510,IN,562107,Bidaraguppe,Karnataka,Bangalore,Anekal,12.7781,77.7726,4,South Indian Restaurant,Bakery,Indian Restaurant,Bus Station,Fishing Store,Fast Food Restaurant,Farmers Market,Event Service,Electronics Store,Donut Shop
50511,IN,562107,Mayasandra,Karnataka,Bangalore,Anekal,12.7781,77.7726,4,South Indian Restaurant,Bakery,Indian Restaurant,Bus Station,Fishing Store,Fast Food Restaurant,Farmers Market,Event Service,Electronics Store,Donut Shop
50512,IN,562107,Neralur,Karnataka,Bangalore,Anekal,12.7781,77.7726,4,South Indian Restaurant,Bakery,Indian Restaurant,Bus Station,Fishing Store,Fast Food Restaurant,Farmers Market,Event Service,Electronics Store,Donut Shop
50640,IN,562120,Chamarajasagara,Karnataka,Bangalore,Magadi,12.9947,77.392,0,0,0,0,0,0,0,0,0,0,0
50672,IN,562125,Sarjapura,Karnataka,Bangalore,Anekal,12.9247,77.6496,4,Bike Shop,Business Service,Pizza Place,Ice Cream Shop,Café,Coffee Shop,Lounge,Japanese Restaurant,Restaurant,Bus Station
50673,IN,562125,Handenahalli,Karnataka,Bangalore,Anekal,12.9247,77.6496,4,Bike Shop,Business Service,Pizza Place,Ice Cream Shop,Café,Coffee Shop,Lounge,Japanese Restaurant,Restaurant,Bus Station
50674,IN,562125,Kugur,Karnataka,Bangalore,Anekal,12.9247,77.6496,4,Bike Shop,Business Service,Pizza Place,Ice Cream Shop,Café,Coffee Shop,Lounge,Japanese Restaurant,Restaurant,Bus Station
50675,IN,562125,Neriga,Karnataka,Bangalore,Anekal,12.9247,77.6496,4,Bike Shop,Business Service,Pizza Place,Ice Cream Shop,Café,Coffee Shop,Lounge,Japanese Restaurant,Restaurant,Bus Station
50676,IN,562125,Dommasandra,Karnataka,Bangalore,Anekal,12.9247,77.6496,4,Bike Shop,Business Service,Pizza Place,Ice Cream Shop,Café,Coffee Shop,Lounge,Japanese Restaurant,Restaurant,Bus Station
50707,IN,562130,Kadabagere,Karnataka,Bangalore,Nla & Bgsouth,13.9288,77.0614,0,0,0,0,0,0,0,0,0,0,0
50710,IN,562130,Chikkanahalli,Karnataka,Bangalore,Bgsouth,14.8375,76.7394,0,0,0,0,0,0,0,0,0,0,0
50711,IN,562130,Chunchanakuppe,Karnataka,Bangalore,Bg South,13.9288,77.0614,0,0,0,0,0,0,0,0,0,0,0
50713,IN,562130,Tavarekere (Bangalore),Karnataka,Bangalore,Bangaloresouth,13.9288,77.0614,0,0,0,0,0,0,0,0,0,0,0
50746,IN,562149,Bagalur (Bangalore),Karnataka,Bangalore,Banglorenorth,11.8675,75.3576,4,Hotel,Mediterranean Restaurant,Indian Restaurant,Park,Dive Bar,Fast Food Restaurant,Farmers Market,Event Service,Electronics Store,Donut Shop
50747,IN,562149,Kannur,Karnataka,Bangalore,Bg North,11.8675,75.3576,4,Hotel,Mediterranean Restaurant,Indian Restaurant,Park,Dive Bar,Fast Food Restaurant,Farmers Market,Event Service,Electronics Store,Donut Shop
50748,IN,562149,Bandikodigehalli,Karnataka,Bangalore,Bgnorth,11.8675,75.3576,4,Hotel,Mediterranean Restaurant,Indian Restaurant,Park,Dive Bar,Fast Food Restaurant,Farmers Market,Event Service,Electronics Store,Donut Shop
50749,IN,562157,Vidyanagara,Karnataka,Bangalore,Bg North,13.1438,77.6169,0,Indian Restaurant,Coffee Shop,Lake,Zoo,Dive Bar,Fast Food Restaurant,Farmers Market,Event Service,Electronics Store,Donut Shop
50750,IN,562157,Hunasamaranahalli,Karnataka,Bangalore,Bg North,13.1438,77.6169,0,Indian Restaurant,Coffee Shop,Lake,Zoo,Dive Bar,Fast Food Restaurant,Farmers Market,Event Service,Electronics Store,Donut Shop
50751,IN,562157,Tarahunise,Karnataka,Bangalore,Bg North,13.1438,77.6169,0,Indian Restaurant,Coffee Shop,Lake,Zoo,Dive Bar,Fast Food Restaurant,Farmers Market,Event Service,Electronics Store,Donut Shop
50752,IN,562157,Doddajala,Karnataka,Bangalore,Bg North,13.1438,77.6169,0,Indian Restaurant,Coffee Shop,Lake,Zoo,Dive Bar,Fast Food Restaurant,Farmers Market,Event Service,Electronics Store,Donut Shop
50753,IN,562157,Bettahalsur,Karnataka,Bangalore,Bangalore North,13.1438,77.6169,0,Indian Restaurant,Coffee Shop,Lake,Zoo,Dive Bar,Fast Food Restaurant,Farmers Market,Event Service,Electronics Store,Donut Shop
50754,IN,562157,Chikkajala,Karnataka,Bangalore,Bg North,13.1438,77.6169,0,Indian Restaurant,Coffee Shop,Lake,Zoo,Dive Bar,Fast Food Restaurant,Farmers Market,Event Service,Electronics Store,Donut Shop
50792,IN,562162,Madanayakanahalli,Karnataka,Bangalore,Bangalore North,17.8647,77.8229,0,0,0,0,0,0,0,0,0,0,0
50794,IN,562162,Dasanapura,Karnataka,Bangalore,Bangalore North,17.8647,77.8229,0,0,0,0,0,0,0,0,0,0,0
